start=new Date('2023-05-09T00:00:00.000Z').valueOf();
sats=[{"RA_OF_ASC_NODE":"175.5215","OBJECT_NAME":"STARLINK-5159","BSTAR":"-0.00002686000000","ECCENTRICITY":"0.00012800","MEAN_MOTION_DDOT":"0.0000000000000","RCS_SIZE":"LARGE","PERIOD":"95.438","REF_FRAME":"TEME","TLE_LINE1":"1 53974U 22125L   23128.46369558 -.00000715  00000-0 -26860-4 0  9993","GP_ID":"231476360","PERIAPSIS":"538.873","DECAY_DATE":null,"APOAPSIS":"540.644","SITE":"AFWTR","ARG_OF_PERICENTER":"93.9672","NORAD_CAT_ID":"53974","MEAN_MOTION":"15.08835803","REV_AT_EPOCH":"3317","OBJECT_ID":"2022-125L","LAUNCH_DATE":"2022-10-05","MEAN_ELEMENT_THEORY":"SGP4","TIME_SYSTEM":"UTC","MEAN_ANOMALY":"266.1467","ELEMENT_SET_NO":"999","TLE_LINE2":"2 53974  53.2141 175.5215 0001280  93.9672 266.1467 15.08835803 33176","FILE":"3904305","MEAN_MOTION_DOT":"-0.00000715","SEMIMAJOR_AXIS":"6917.893","CLASSIFICATION_TYPE":"U","COUNTRY_CODE":"US","EPHEMERIS_TYPE":"0","CENTER_NAME":"EARTH","OBJECT_TYPE":"PAYLOAD","EPOCH":"2023-05-08T11:07:43.298112","INCLINATION":"53.2141"},{"DECAY_DATE":null,"APOAPSIS":"540.672","REF_FRAME":"TEME","PERIOD":"95.437","RCS_SIZE":"LARGE","TLE_LINE1":"1 53975U 22125M   23128.46415107  .00000119  00000-0  25550-4 0  9997","PERIAPSIS":"538.760","GP_ID":"231476605","REV_AT_EPOCH":"3296","OBJECT_ID":"2022-125M","ARG_OF_PERICENTER":"103.4562","SITE":"AFWTR","MEAN_MOTION":"15.08849568","NORAD_CAT_ID":"53975","BSTAR":"0.00002555000000","ECCENTRICITY":"0.00013820","OBJECT_NAME":"STARLINK-5137","RA_OF_ASC_NODE":"190.4942","MEAN_MOTION_DDOT":"0.0000000000000","EPHEMERIS_TYPE":"0","CENTER_NAME":"EARTH","SEMIMAJOR_AXIS":"6917.851","COUNTRY_CODE":"US","CLASSIFICATION_TYPE":"U","EPOCH":"2023-05-08T11:08:22.652448","INCLINATION":"53.2160","OBJECT_TYPE":"PAYLOAD","TLE_LINE2":"2 53975  53.2160 190.4942 0001382 103.4562 256.6584 15.08849568 32962","LAUNCH_DATE":"2022-10-05","TIME_SYSTEM":"UTC","MEAN_ELEMENT_THEORY":"SGP4","MEAN_ANOMALY":"256.6584","ELEMENT_SET_NO":"999","FILE":"3904305","MEAN_MOTION_DOT":"0.00000119"},{"MEAN_MOTION_DDOT":"0.0000000000000","RA_OF_ASC_NODE":"175.9297","OBJECT_NAME":"STARLINK-5134","ECCENTRICITY":"0.00011380","BSTAR":"-0.00006152700000","MEAN_MOTION":"15.08835698","NORAD_CAT_ID":"53976","SITE":"AFWTR","ARG_OF_PERICENTER":"86.2228","OBJECT_ID":"2022-125N","REV_AT_EPOCH":"3316","GP_ID":"231477362","TLE_LINE1":"1 53976U 22125N   23128.41315516 -.00001267  00000-0 -61527-4 0  9997","PERIAPSIS":"538.971","REF_FRAME":"TEME","PERIOD":"95.438","RCS_SIZE":"LARGE","APOAPSIS":"540.546","DECAY_DATE":null,"MEAN_MOTION_DOT":"-0.00001267","FILE":"3904305","MEAN_ELEMENT_THEORY":"SGP4","LAUNCH_DATE":"2022-10-05","TIME_SYSTEM":"UTC","MEAN_ANOMALY":"273.8894","ELEMENT_SET_NO":"999","TLE_LINE2":"2 53976  53.2150 175.9297 0001138  86.2228 273.8894 15.08835698 33166","OBJECT_TYPE":"PAYLOAD","EPOCH":"2023-05-08T09:54:56.605824","INCLINATION":"53.2150","COUNTRY_CODE":"US","CLASSIFICATION_TYPE":"U","SEMIMAJOR_AXIS":"6917.894","CENTER_NAME":"EARTH","EPHEMERIS_TYPE":"0"},{"RA_OF_ASC_NODE":"190.5030","OBJECT_NAME":"STARLINK-5094","ECCENTRICITY":"0.00010140","BSTAR":"-0.00010120000000","MEAN_MOTION_DDOT":"0.0000000000000","TLE_LINE1":"1 53977U 22125P   23128.58197765 -.00001898  00000-0 -10120-3 0  9992","PERIAPSIS":"539.051","GP_ID":"231478110","PERIOD":"95.438","RCS_SIZE":"LARGE","REF_FRAME":"TEME","APOAPSIS":"540.454","DECAY_DATE":null,"NORAD_CAT_ID":"53977","MEAN_MOTION":"15.08837667","ARG_OF_PERICENTER":"74.6454","SITE":"AFWTR","OBJECT_ID":"2022-125P","REV_AT_EPOCH":"3297","LAUNCH_DATE":"2022-10-05","TIME_SYSTEM":"UTC","MEAN_ELEMENT_THEORY":"SGP4","ELEMENT_SET_NO":"999","MEAN_ANOMALY":"285.4650","TLE_LINE2":"2 53977  53.2161 190.5030 0001014  74.6454 285.4650 15.08837667 32977","MEAN_MOTION_DOT":"-0.00001898","FILE":"3904305","CLASSIFICATION_TYPE":"U","COUNTRY_CODE":"US","SEMIMAJOR_AXIS":"6917.888","CENTER_NAME":"EARTH","EPHEMERIS_TYPE":"0","OBJECT_TYPE":"PAYLOAD","INCLINATION":"53.2161","EPOCH":"2023-05-08T13:58:02.868960"},{"SEMIMAJOR_AXIS":"6917.892","COUNTRY_CODE":"US","CLASSIFICATION_TYPE":"U","EPHEMERIS_TYPE":"0","CENTER_NAME":"EARTH","OBJECT_TYPE":"PAYLOAD","EPOCH":"2023-05-08T10:16:49.376064","INCLINATION":"53.2155","LAUNCH_DATE":"2022-10-05","MEAN_ELEMENT_THEORY":"SGP4","TIME_SYSTEM":"UTC","ELEMENT_SET_NO":"999","MEAN_ANOMALY":"272.7893","TLE_LINE2":"2 53978  53.2155 190.9679 0001276  87.3245 272.7893 15.08836145 32959","FILE":"3904305","MEAN_MOTION_DOT":"-0.00001099","REF_FRAME":"TEME","RCS_SIZE":"LARGE","PERIOD":"95.438","GP_ID":"231476861","TLE_LINE1":"1 53978U 22125Q   23128.42834926 -.00001099  00000-0 -51005-4 0  9994","PERIAPSIS":"538.874","DECAY_DATE":null,"APOAPSIS":"540.640","ARG_OF_PERICENTER":"87.3245","SITE":"AFWTR","MEAN_MOTION":"15.08836145","NORAD_CAT_ID":"53978","REV_AT_EPOCH":"3295","OBJECT_ID":"2022-125Q","OBJECT_NAME":"STARLINK-5148","RA_OF_ASC_NODE":"190.9679","BSTAR":"-0.00005100500000","ECCENTRICITY":"0.00012760","MEAN_MOTION_DDOT":"0.0000000000000"},{"MEAN_MOTION_DDOT":"0.0000000000000","ECCENTRICITY":"0.00012310","BSTAR":"0.00007259900000","OBJECT_NAME":"STARLINK-5123","RA_OF_ASC_NODE":"191.0260","OBJECT_ID":"2022-125R","REV_AT_EPOCH":"3295","MEAN_MOTION":"15.08838880","NORAD_CAT_ID":"53979","ARG_OF_PERICENTER":"103.1129","SITE":"AFWTR","APOAPSIS":"540.600","DECAY_DATE":null,"GP_ID":"231477106","TLE_LINE1":"1 53979U 22125R   23128.43844466  .00000868  00000-0  72599-4 0  9998","PERIAPSIS":"538.897","REF_FRAME":"TEME","RCS_SIZE":"LARGE","PERIOD":"95.438","MEAN_MOTION_DOT":"0.00000868","FILE":"3904305","TLE_LINE2":"2 53979  53.2161 191.0260 0001231 103.1129 257.0000 15.08838880 32958","TIME_SYSTEM":"UTC","LAUNCH_DATE":"2022-10-05","MEAN_ELEMENT_THEORY":"SGP4","MEAN_ANOMALY":"257.0000","ELEMENT_SET_NO":"999","INCLINATION":"53.2161","EPOCH":"2023-05-08T10:31:21.618624","OBJECT_TYPE":"PAYLOAD","CENTER_NAME":"EARTH","EPHEMERIS_TYPE":"0","COUNTRY_CODE":"US","CLASSIFICATION_TYPE":"U","SEMIMAJOR_AXIS":"6917.884"},{"FILE":"3904305","MEAN_MOTION_DOT":"0.00002042","LAUNCH_DATE":"2022-10-05","MEAN_ELEMENT_THEORY":"SGP4","MEAN_ANOMALY":"268.2659","TIME_SYSTEM":"UTC","ELEMENT_SET_NO":"999","TLE_LINE2":"2 53980  53.2169 190.5723 0001122  91.8461 268.2659 15.08835574 32969","OBJECT_TYPE":"PAYLOAD","EPOCH":"2023-05-08T11:29:36.702528","INCLINATION":"53.2169","SEMIMAJOR_AXIS":"6917.894","COUNTRY_CODE":"US","CLASSIFICATION_TYPE":"U","EPHEMERIS_TYPE":"0","CENTER_NAME":"EARTH","MEAN_MOTION_DDOT":"0.0000000000000","RA_OF_ASC_NODE":"190.5723","OBJECT_NAME":"STARLINK-5133","BSTAR":"0.00014637000000","ECCENTRICITY":"0.00011220","ARG_OF_PERICENTER":"91.8461","SITE":"AFWTR","MEAN_MOTION":"15.08835574","NORAD_CAT_ID":"53980","REV_AT_EPOCH":"3296","OBJECT_ID":"2022-125S","REF_FRAME":"TEME","PERIOD":"95.438","RCS_SIZE":"LARGE","TLE_LINE1":"1 53980U 22125S   23128.47889702  .00002042  00000-0  14637-3 0  9990","GP_ID":"231477863","PERIAPSIS":"538.983","DECAY_DATE":null,"APOAPSIS":"540.535"},{"OBJECT_TYPE":"PAYLOAD","EPOCH":"2023-05-08T13:04:20.205984","INCLINATION":"53.2143","CLASSIFICATION_TYPE":"U","COUNTRY_CODE":"US","SEMIMAJOR_AXIS":"6917.892","CENTER_NAME":"EARTH","EPHEMERIS_TYPE":"0","MEAN_MOTION_DOT":"-0.00000485","FILE":"3904305","TIME_SYSTEM":"UTC","LAUNCH_DATE":"2022-10-05","MEAN_ELEMENT_THEORY":"SGP4","MEAN_ANOMALY":"278.6199","ELEMENT_SET_NO":"999","TLE_LINE2":"2 53981  53.2143 175.3314 0001226  81.4932 278.6199 15.08836260 33184","NORAD_CAT_ID":"53981","MEAN_MOTION":"15.08836260","ARG_OF_PERICENTER":"81.4932","SITE":"AFWTR","OBJECT_ID":"2022-125T","REV_AT_EPOCH":"3318","GP_ID":"231477610","TLE_LINE1":"1 53981U 22125T   23128.54467831 -.00000485  00000-0 -12419-4 0  9992","PERIAPSIS":"538.909","PERIOD":"95.438","RCS_SIZE":"LARGE","REF_FRAME":"TEME","APOAPSIS":"540.605","DECAY_DATE":null,"MEAN_MOTION_DDOT":"0.0000000000000","OBJECT_NAME":"STARLINK-5149","RA_OF_ASC_NODE":"175.3314","ECCENTRICITY":"0.00012260","BSTAR":"-0.00001241900000"},{"BSTAR":"0.00014415000000","ECCENTRICITY":"0.00010790","OBJECT_NAME":"STARLINK-5120","RA_OF_ASC_NODE":"186.0543","MEAN_MOTION_DDOT":"0.0000000000000","DECAY_DATE":null,"APOAPSIS":"540.477","PERIOD":"95.437","RCS_SIZE":"LARGE","REF_FRAME":"TEME","PERIAPSIS":"538.984","TLE_LINE1":"1 53982U 22125U   23128.44074736  .00002007  00000-0  14415-3 0  9997","GP_ID":"231476361","REV_AT_EPOCH":"3301","OBJECT_ID":"2022-125U","SITE":"AFWTR","ARG_OF_PERICENTER":"85.9444","NORAD_CAT_ID":"53982","MEAN_MOTION":"15.08844958","TLE_LINE2":"2 53982  53.2158 186.0543 0001079  85.9444 274.1672 15.08844958 33019","TIME_SYSTEM":"UTC","LAUNCH_DATE":"2022-10-05","MEAN_ANOMALY":"274.1672","MEAN_ELEMENT_THEORY":"SGP4","ELEMENT_SET_NO":"999","FILE":"3904305","MEAN_MOTION_DOT":"0.00002007","EPHEMERIS_TYPE":"0","CENTER_NAME":"EARTH","SEMIMAJOR_AXIS":"6917.865","CLASSIFICATION_TYPE":"U","COUNTRY_CODE":"US","EPOCH":"2023-05-08T10:34:40.571904","INCLINATION":"53.2158","OBJECT_TYPE":"PAYLOAD"},{"BSTAR":"0.00007510200000","ECCENTRICITY":"0.00011910","RA_OF_ASC_NODE":"174.1699","OBJECT_NAME":"STARLINK-5103","MEAN_MOTION_DDOT":"0.0000000000000","DECAY_DATE":null,"APOAPSIS":"540.581","RCS_SIZE":"LARGE","PERIOD":"95.438","REF_FRAME":"TEME","TLE_LINE1":"1 53983U 22125V   23128.81700596  .00000907  00000-0  75102-4 0  9997","PERIAPSIS":"538.933","GP_ID":"231476606","REV_AT_EPOCH":"3322","OBJECT_ID":"2022-125V","SITE":"AFWTR","ARG_OF_PERICENTER":"94.1687","NORAD_CAT_ID":"53983","MEAN_MOTION":"15.08836229","TLE_LINE2":"2 53983  53.2159 174.1699 0001191  94.1687 265.9442 15.08836229 33225","MEAN_ELEMENT_THEORY":"SGP4","LAUNCH_DATE":"2022-10-05","MEAN_ANOMALY":"265.9442","ELEMENT_SET_NO":"999","TIME_SYSTEM":"UTC","FILE":"3904305","MEAN_MOTION_DOT":"0.00000907","EPHEMERIS_TYPE":"0","CENTER_NAME":"EARTH","SEMIMAJOR_AXIS":"6917.892","CLASSIFICATION_TYPE":"U","COUNTRY_CODE":"US","INCLINATION":"53.2159","EPOCH":"2023-05-08T19:36:29.314944","OBJECT_TYPE":"PAYLOAD"}];
